[{"OBJECT_NAME":"CARTOSAT-2C","OBJECT_ID":"2016-040A","EPOCH":"2026-03-09T22:26:22.952832","MEAN_MOTION":15.19225576,"ECCENTRICITY":0.00104304,"INCLINATION":97.4605,"RA_OF_ASC_NODE":130.2157,"ARG_OF_PERICENTER":119.7256,"MEAN_ANOMALY":240.5018,"EPHEMERIS_TYPE":0,"CLASSIFICATION_TYPE":"U","NORAD_CAT_ID":41599,"ELEMENT_SET_NO":999,"REV_AT_EPOCH":53864,"BSTAR":0.0002054492,"MEAN_MOTION_DOT":4.264e-5,"MEAN_MOTION_DDOT":0},{"OBJECT_NAME":"SITRO-AIS-64","OBJECT_ID":"2025-313AW","EPOCH":"2026-03-09T22:35:09.372480","MEAN_MOTION":15.230077,"ECCENTRICITY":0.00087165,"INCLINATION":97.4006,"RA_OF_ASC_NODE":145.3433,"ARG_OF_PERICENTER":353.6224,"MEAN_ANOMALY":6.49,"EPHEMERIS_TYPE":0,"CLASSIFICATION_TYPE":"U","NORAD_CAT_ID":67292,"ELEMENT_SET_NO":999,"REV_AT_EPOCH":1086,"BSTAR":0.00054511054,"MEAN_MOTION_DOT":0.00012775,"MEAN_MOTION_DDOT":0}]
